ONEWEB-0211             
1 48767U 21045A   26177.92148901  .00000008  00000+0 -13118-4 0  9997
2 48767  87.9005 257.1407 0002247 117.3946 242.7413 13.16196784245724
ONEWEB-0223             
1 48768U 21045B   26177.92860478 -.00000033  00000+0 -12164-3 0  9996
2 48768  87.9010 257.2503 0001932 112.0964 248.0371 13.15550293245686
ONEWEB-0230             
1 48769U 21045C   26177.74797100  .00000121  00000+0  28826-3 0  9996
2 48769  87.8996 257.2989 0001964  95.4635 264.6720 13.15548713245924
ONEWEB-0237             
1 48770U 21045D   26177.73687659  .00000082  00000+0  18244-3 0  9993
2 48770  87.8996 257.3030 0001810 105.9749 254.1581 13.15547695245643
ONEWEB-0235             
1 48771U 21045E   26177.93969748 -.00000100  00000+0 -29908-3 0  9990
2 48771  87.9008 257.2492 0001870 111.4252 248.7078 13.15549151245668
ONEWEB-0242             
1 48772U 21045F   26177.93335670 -.00000137  00000+0 -39918-3 0  9994
2 48772  87.9010 257.2473 0001815 101.1678 258.9657 13.15547127245700
ONEWEB-0241             
1 48773U 21045G   26177.92068110  .00000068  00000+0  14561-3 0  9994
2 48773  87.8999 257.2672 0002112 112.1540 247.9814 13.15549753245618
ONEWEB-0243             
1 48774U 21045H   26177.95236693 -.00000119  00000+0 -35123-3 0  9997
2 48774  87.8997 257.2732 0001498 104.0793 256.0504 13.15549094245648
ONEWEB-0222             
1 48775U 21045J   26177.93572662 -.00000111  00000+0 -33002-3 0  9991
2 48775  87.9007 257.2448 0002000 106.2594 253.8757 13.15549389245685
ONEWEB-0244             
1 48776U 21045K   26177.73370760  .00000066  00000+0  14249-3 0  9994
2 48776  87.9010 257.2802 0001897 102.7095 257.4248 13.15548861246224
ONEWEB-0247             
1 48777U 21045L   26177.73054065  .00000006  00000+0 -18353-4 0  9998
2 48777  87.8997 257.3119 0001414 119.4705 240.6567 13.15547531245666
ONEWEB-0245             
1 48778U 21045M   26177.95395468 -.00000122  00000+0 -35855-3 0  9993
2 48778  87.9007 257.2474 0002086 105.7163 254.4198 13.15548700245667
ONEWEB-0229             
1 48779U 21045N   26177.94919783 -.00000101  00000+0 -30348-3 0  9994
2 48779  87.9006 257.2464 0001853 100.9639 259.1700 13.15549732245692
ONEWEB-0228             
1 48780U 21045P   26177.75444508  .00000064  00000+0  13701-3 0  9993
2 48780  87.9014 257.2784 0001987 101.3321 258.8033 13.15546538245583
ONEWEB-0232             
1 48781U 21045Q   26177.72894918 -.00000036  00000+0 -13015-3 0  9994
2 48781  87.9013 257.2841 0002083 101.7995 258.3369 13.15546759245904
ONEWEB-0231             
1 48782U 21045R   26177.78282023 -.00000125  00000+0 -36560-3 0  9998
2 48782  87.9004 257.2857 0001928 107.0072 253.1269 13.15549201245608
ONEWEB-0234             
1 48783U 21045S   26177.66859964  .00000147  00000+0  35731-3 0  9991
2 48783  87.9003 257.2903 0002821 102.0322 258.1124 13.15549514245721
ONEWEB-0238             
1 48784U 21045T   26177.74493692  .00000165  00000+0  40320-3 0  9993
2 48784  87.9010 257.2702 0002426 101.5364 258.6039 13.15547861245631
ONEWEB-0240             
1 48785U 21045U   26177.91830544  .00000022  00000+0  23936-4 0  9991
2 48785  87.9010 257.2456 0002080 109.4523 250.6832 13.15548187245688
ONEWEB-0246             
1 48786U 21045V   26177.91275447  .00000109  00000+0  25659-3 0  9996
2 48786  87.9009 257.2511 0001875 100.0989 260.0353 13.15549598245559
ONEWEB-0210             
1 48787U 21045W   26177.73528262  .00000079  00000+0  17536-3 0  9994
2 48787  87.9006 257.2834 0001142 109.4171 250.7082 13.15546575245577
ONEWEB-0214             
1 48788U 21045X   26177.74399791  .00000148  00000+0  35953-3 0  9999
2 48788  87.9008 257.2785 0001688  92.9728 267.1596 13.15549412245546
ONEWEB-0221             
1 48789U 21045Y   26177.75113986  .00000089  00000+0  20252-3 0  9991
2 48789  87.9007 257.2858 0001952 105.7349 254.3996 13.15548728245634
ONEWEB-0213             
1 48790U 21045Z   26177.74004544  .00000109  00000+0  25506-3 0  9991
2 48790  87.9004 257.2911 0001785 106.7049 253.4277 13.15547778245697
ONEWEB-0212             
1 48791U 21045AA  26177.94522066 -.00000119  00000+0 -34980-3 0  9997
2 48791  87.9009 257.2448 0002084 100.3964 259.7401 13.15550584245717
ONEWEB-0227             
1 48792U 21045AB  26177.94444562 -.00000131  00000+0 -38316-3 0  9993
2 48792  87.9006 257.2455 0002032 103.0053 257.1304 13.15549184245667
ONEWEB-0226             
1 48793U 21045AC  26177.93809674 -.00000151  00000+0 -43449-3 0  9997
2 48793  87.9003 257.2510 0001781 103.2879 256.8450 13.15546871245630
ONEWEB-0224             
1 48794U 21045AD  26177.74955466  .00000139  00000+0  33403-3 0  9991
2 48794  87.8998 257.3222 0002691 114.5797 245.5614 13.15547456245535
ONEWEB-0233             
1 48795U 21045AE  26177.75416863  .00000051  00000+0  10049-3 0  9990
2 48795  87.8999 257.3287 0001988 109.3472 250.7873 13.15548389245551
ONEWEB-0190             
1 48796U 21045AF  26177.74162862  .00000139  00000+0  33429-3 0  9991
2 48796  87.9001 257.2935 0001619 119.0454 241.0839 13.15547558245625
