OBJECT_NAME,OBJECT_ID,EPOCH,MEAN_MOTION,ECCENTRICITY,INCLINATION,RA_OF_ASC_NODE,ARG_OF_PERICENTER,MEAN_ANOMALY,EPHEMERIS_TYPE,CLASSIFICATION_TYPE,NORAD_CAT_ID,ELEMENT_SET_NO,REV_AT_EPOCH,BSTAR,MEAN_MOTION_DOT,MEAN_MOTION_DDOT
ONEWEB-0211,2021-045A,2026-06-26T22:06:56.650464,13.16196784,.00022479,87.9005,257.1407,117.3946,242.7413,0,U,48767,999,24572,-.1311839E-4,.8E-7,0
ONEWEB-0223,2021-045B,2026-06-26T22:17:11.452992,13.15550293,.00019326,87.9010,257.2503,112.0964,248.0371,0,U,48768,999,24568,-.12163592E-3,-.33E-6,0
ONEWEB-0230,2021-045C,2026-06-26T17:57:04.694400,13.15548713,.00019646,87.8996,257.2989,95.4635,264.6720,0,U,48769,999,24592,.28826262E-3,.121E-5,0
ONEWEB-0237,2021-045D,2026-06-26T17:41:06.137376,13.15547695,.00018109,87.8996,257.3030,105.9749,254.1581,0,U,48770,999,24564,.18243974E-3,.82E-6,0
ONEWEB-0235,2021-045E,2026-06-26T22:33:09.862272,13.15549151,.00018707,87.9008,257.2492,111.4252,248.7078,0,U,48771,999,24566,-.29907849E-3,-.1E-5,0
ONEWEB-0242,2021-045F,2026-06-26T22:24:02.018880,13.15547127,.00018156,87.9010,257.2473,101.1678,258.9657,0,U,48772,999,24570,-.39918304E-3,-.137E-5,0
ONEWEB-0241,2021-045G,2026-06-26T22:05:46.847040,13.15549753,.00021129,87.8999,257.2672,112.1540,247.9814,0,U,48773,999,24561,.14560751E-3,.68E-6,0
ONEWEB-0243,2021-045H,2026-06-26T22:51:24.502752,13.15549094,.00014983,87.8997,257.2732,104.0793,256.0504,0,U,48774,999,24564,-.35123339E-3,-.119E-5,0
ONEWEB-0222,2021-045J,2026-06-26T22:27:26.779968,13.15549389,.00020008,87.9007,257.2448,106.2594,253.8757,0,U,48775,999,24568,-.33002441E-3,-.111E-5,0
ONEWEB-0244,2021-045K,2026-06-26T17:36:32.336640,13.15548861,.00018976,87.9010,257.2802,102.7095,257.4248,0,U,48776,999,24622,.14248784E-3,.66E-6,0
ONEWEB-0247,2021-045L,2026-06-26T17:31:58.712160,13.15547531,.00014146,87.8997,257.3119,119.4705,240.6567,0,U,48777,999,24566,-.18353261E-4,.6E-7,0
ONEWEB-0245,2021-045M,2026-06-26T22:53:41.684352,13.15548700,.0002086,87.9007,257.2474,105.7163,254.4198,0,U,48778,999,24566,-.35855206E-3,-.122E-5,0
ONEWEB-0229,2021-045N,2026-06-26T22:46:50.692512,13.15549732,.00018534,87.9006,257.2464,100.9639,259.1700,0,U,48779,999,24569,-.30347561E-3,-.101E-5,0
ONEWEB-0228,2021-045P,2026-06-26T18:06:24.054912,13.15546538,.00019872,87.9014,257.2784,101.3321,258.8033,0,U,48780,999,24558,.13700557E-3,.64E-6,0
ONEWEB-0232,2021-045Q,2026-06-26T17:29:41.209152,13.15546759,.00020837,87.9013,257.2841,101.7995,258.3369,0,U,48781,999,24590,-.13015159E-3,-.36E-6,0
ONEWEB-0231,2021-045R,2026-06-26T18:47:15.667872,13.15549201,.00019289,87.9004,257.2857,107.0072,253.1269,0,U,48782,999,24560,-.36559723E-3,-.125E-5,0
ONEWEB-0234,2021-045S,2026-06-26T16:02:47.008896,13.15549514,.00028215,87.9003,257.2903,102.0322,258.1124,0,U,48783,999,24572,.35730691E-3,.147E-5,0
ONEWEB-0238,2021-045T,2026-06-26T17:52:42.549888,13.15547861,.00024262,87.9010,257.2702,101.5364,258.6039,0,U,48784,999,24563,.40319802E-3,.165E-5,0
ONEWEB-0240,2021-045U,2026-06-26T22:02:21.590016,13.15548187,.00020809,87.9010,257.2456,109.4523,250.6832,0,U,48785,999,24568,.23935721E-4,.22E-6,0
ONEWEB-0246,2021-045V,2026-06-26T21:54:21.986208,13.15549598,.00018754,87.9009,257.2511,100.0989,260.0353,0,U,48786,999,24555,.2565911E-3,.109E-5,0
ONEWEB-0210,2021-045W,2026-06-26T17:38:48.418368,13.15546575,.0001142,87.9006,257.2834,109.4171,250.7082,0,U,48787,999,24557,.1753595E-3,.79E-6,0
ONEWEB-0214,2021-045X,2026-06-26T17:51:21.419424,13.15549412,.00016888,87.9008,257.2785,92.9728,267.1596,0,U,48788,999,24554,.35953078E-3,.148E-5,0
ONEWEB-0221,2021-045Y,2026-06-26T18:01:38.483904,13.15548728,.00019525,87.9007,257.2858,105.7349,254.3996,0,U,48789,999,24563,.20251857E-3,.89E-6,0
ONEWEB-0213,2021-045Z,2026-06-26T17:45:39.926016,13.15547778,.00017852,87.9004,257.2911,106.7049,253.4277,0,U,48790,999,24569,.25506426E-3,.109E-5,0
ONEWEB-0212,2021-045AA,2026-06-26T22:41:07.065024,13.15550584,.00020842,87.9009,257.2448,100.3964,259.7401,0,U,48791,999,24571,-.34979967E-3,-.119E-5,0
ONEWEB-0227,2021-045AB,2026-06-26T22:40:00.101568,13.15549184,.00020326,87.9006,257.2455,103.0053,257.1304,0,U,48792,999,24566,-.3831629E-3,-.131E-5,0
ONEWEB-0226,2021-045AC,2026-06-26T22:30:51.558336,13.15546871,.00017813,87.9003,257.2510,103.2879,256.8450,0,U,48793,999,24563,-.43448872E-3,-.151E-5,0
ONEWEB-0224,2021-045AD,2026-06-26T17:59:21.522624,13.15547456,.00026915,87.8998,257.3222,114.5797,245.5614,0,U,48794,999,24553,.33403403E-3,.139E-5,0
ONEWEB-0233,2021-045AE,2026-06-26T18:06:00.169632,13.15548389,.00019883,87.8999,257.3287,109.3472,250.7873,0,U,48795,999,24555,.10049448E-3,.51E-6,0
ONEWEB-0190,2021-045AF,2026-06-26T17:47:56.712768,13.15547558,.00016196,87.9001,257.2935,119.0454,241.0839,0,U,48796,999,24562,.33429469E-3,.139E-5,0
